OBJECT_NAME,OBJECT_ID,EPOCH,MEAN_MOTION,ECCENTRICITY,INCLINATION,RA_OF_ASC_NODE,ARG_OF_PERICENTER,MEAN_ANOMALY,EPHEMERIS_TYPE,CLASSIFICATION_TYPE,NORAD_CAT_ID,ELEMENT_SET_NO,REV_AT_EPOCH,BSTAR,MEAN_MOTION_DOT,MEAN_MOTION_DDOT
STARLINK-4563,2022-101AL,2026-07-01T15:31:53.386752,15.08838428,.00011732,53.1597,272.3599,89.6267,270.4858,0,U,53561,999,21351,.50204411E-4,.511E-5,0
STARLINK-4565,2022-101AM,2026-07-01T22:00:01.999584,15.24699803,.00009493,53.1590,260.0890,43.5841,358.6992,0,U,53562,999,580,.18021718E-2,.45088E-3,0
STARLINK-4561,2022-101AN,2026-07-01T22:00:01.999584,15.25545673,.00008909,53.1586,260.3745,116.6293,139.5847,0,U,53563,999,580,.41967579E-1,.1172286E-1,0
STARLINK-4577,2022-101AP,2026-07-01T22:00:01.999584,15.23469807,.00012459,53.1588,260.3982,103.8166,139.8656,0,U,53564,999,574,.42205202E-1,.1102779E-1,0
STARLINK-4575,2022-101AQ,2026-07-01T22:00:01.999584,15.24800254,.00014435,53.1595,260.4429,98.9856,120.4512,0,U,53565,999,580,.43631989E-1,.1193774E-1,0
STARLINK-4576,2022-101AR,2026-07-01T22:00:01.999584,15.23905719,.00008465,53.1589,260.1104,45.3985,345.2221,0,U,53566,999,559,.17207195E-2,.42004E-3,0
STARLINK-4585,2022-101AS,2026-07-01T11:45:22.052448,15.08842593,.00011418,53.1584,263.1725,83.5089,276.6032,0,U,53567,999,21362,-.5875379E-5,-.381E-5,0
STARLINK-4583,2022-101AT,2026-07-01T22:00:01.999584,15.23213855,.00012699,53.1607,260.2762,69.9781,235.0900,0,U,53568,999,579,.245636E-1,.633698E-2,0
STARLINK-4582,2022-101AU,2026-07-01T22:00:01.999584,15.22371194,.00012494,53.1611,260.3789,74.6380,177.5301,0,U,53569,999,574,.26947895E-1,.673233E-2,0
STARLINK-4550,2022-101AV,2026-07-01T22:00:01.999584,15.27083156,.00009258,53.1598,260.0337,44.4152,26.6807,0,U,53570,999,579,.15145149E-2,.40646E-3,0
STARLINK-4584,2022-101AW,2026-07-01T22:00:01.999584,15.22096901,.0000358,53.1592,260.2302,73.5590,256.1292,0,U,53571,999,579,.17680097E-2,.40899E-3,0
STARLINK-4555,2022-101AX,2026-07-01T22:00:01.999584,15.23165930,.00015067,53.1600,260.0592,43.5443,12.9580,0,U,53572,999,580,.19700405E-2,.47122E-3,0
STARLINK-4559,2022-101AZ,2026-07-01T22:00:01.999584,15.25031169,.00012148,53.1595,260.0733,50.4379,358.7943,0,U,53574,999,564,.41904247E-1,.1150842E-1,0
STARLINK-4551,2022-101BA,2026-07-01T22:00:01.999584,15.25786081,.00017278,53.1607,259.9598,73.5739,34.1198,0,U,53575,999,579,.37265522E-1,.1053466E-1,0
STARLINK-4581,2022-101BB,2026-07-01T22:11:59.931744,15.08837375,.00010366,53.1593,260.9109,88.0721,272.0389,0,U,53576,999,21451,.67841612E-4,.792E-5,0
STARLINK-4553,2022-101BC,2026-07-01T22:00:01.999584,15.23275473,.00010471,53.1593,260.1057,67.1787,324.6092,0,U,53577,999,569,.42185407E-1,.109539E-1,0
STARLINK-4556,2022-101BD,2026-07-01T22:00:01.999584,15.21556051,.00011858,53.1601,259.9690,67.5197,36.0215,0,U,53578,999,575,.90589337E-3,.20406E-3,0
STARLINK-4580,2022-101BE,2026-07-01T22:00:01.999584,15.22518086,.00010807,53.1598,260.0660,53.5536,358.0856,0,U,53579,999,580,.19496622E-2,.45732E-3,0
STARLINK-4691,2022-104A,2026-07-01T21:40:13.481184,15.08839652,.00013573,53.1615,91.4655,93.5478,266.5668,0,U,53588,999,21333,.62879145E-4,.713E-5,0
STARLINK-4673,2022-104B,2026-07-01T22:00:01.999584,15.26534942,.00008603,53.1589,90.1672,79.6618,271.7024,0,U,53589,999,580,.92840752E-3,.24316E-3,0
STARLINK-4689,2022-104C,2026-07-01T22:00:01.999584,15.76147734,.00016028,53.2194,70.9650,75.6478,76.8404,0,U,53590,999,586,-.28166819E-2,-.428071E-2,0
STARLINK-4674,2022-104D,2026-07-01T22:00:01.999584,15.14731356,.00020148,53.1602,91.1829,77.7424,110.0574,0,U,53591,999,569,.8777686E-3,.16189E-3,0
STARLINK-4672,2022-104E,2026-07-01T22:00:01.999584,15.25916298,.00011741,53.1591,90.1809,89.2511,255.9526,0,U,53592,999,580,.12758052E-2,.32957E-3,0
STARLINK-4681,2022-104G,2026-07-01T20:17:43.162080,16.32046594,.00096277,53.2030,49.8228,268.7376,91.2566,0,U,53594,999,21390,.64294044E-3,.3723469E-1,.12121711E-4
STARLINK-4684,2022-104H,2026-07-01T22:00:01.999584,15.23337291,.00015005,53.1607,90.6939,72.7860,7.9901,0,U,53595,999,579,.466593E-1,.1225271E-1,0
STARLINK-4676,2022-104L,2026-07-01T23:04:37.013664,15.12120561,.00011742,53.1610,90.4204,92.4527,267.6600,0,U,53598,999,21287,.48396699E-4,.546E-5,0
STARLINK-4677,2022-104N,2026-07-01T22:00:01.999584,15.13666823,.00009214,53.1605,91.4740,142.5063,250.9855,0,U,53600,999,574,.58102601E-3,.10285E-3,0
STARLINK-4675,2022-104P,2026-07-01T22:00:01.999584,15.22709668,.00012017,53.1592,90.2775,90.0463,202.5954,0,U,53601,999,564,.13181072E-2,.30924E-3,0
STARLINK-4648,2022-104Q,2026-07-01T22:31:10.617312,15.08837966,.0001334,53.1601,85.9947,91.6665,268.4479,0,U,53602,999,21293,.8556886E-4,.1074E-4,0
STARLINK-4692,2022-104R,2026-07-01T23:03:00.998208,15.08836687,.0001726,53.1608,86.1326,92.4164,267.7025,0,U,53603,999,21293,.46987852E-4,.46E-5,0
