[{"name":"STARLINK-4563","l1":"1 53561U 22101AL  26182.64714568  .00000511  00000+0  50204-4 0  9997","l2":"2 53561  53.1597 272.3599 0001173  89.6267 270.4858 15.08838428213512","cat":"starlink"},{"name":"STARLINK-4565","l1":"1 53562U 22101AM  26182.91668981  .00045088  00000+0  18022-2 0  9993","l2":"2 53562  53.1590 260.0890 0000949  43.5841 358.6992 15.24699803  5800","cat":"starlink"},{"name":"STARLINK-4561","l1":"1 53563U 22101AN  26182.91668981  .01172286  00000+0  41968-1 0  9990","l2":"2 53563  53.1586 260.3745 0000890 116.6293 139.5847 15.25545673  5807","cat":"starlink"},{"name":"STARLINK-4577","l1":"1 53564U 22101AP  26182.91668981  .01102779  00000+0  42205-1 0  9996","l2":"2 53564  53.1588 260.3982 0001245 103.8166 139.8656 15.23469807  5741","cat":"starlink"},{"name":"STARLINK-4575","l1":"1 53565U 22101AQ  26182.91668981  .01193774  00000+0  43632-1 0  9997","l2":"2 53565  53.1595 260.4429 0001443  98.9856 120.4512 15.24800254  5807","cat":"starlink"},{"name":"STARLINK-4576","l1":"1 53566U 22101AR  26182.91668981  .00042004  00000+0  17207-2 0  9996","l2":"2 53566  53.1589 260.1104 0000846  45.3985 345.2221 15.23905719  5594","cat":"starlink"},{"name":"STARLINK-4585","l1":"1 53567U 22101AS  26182.48983857 -.00000381  00000+0 -58754-5 0  9990","l2":"2 53567  53.1584 263.1725 0001141  83.5089 276.6032 15.08842593213625","cat":"starlink"},{"name":"STARLINK-4583","l1":"1 53568U 22101AT  26182.91668981  .00633698  00000+0  24564-1 0  9996","l2":"2 53568  53.1607 260.2762 0001269  69.9781 235.0900 15.23213855  5799","cat":"starlink"},{"name":"STARLINK-4582","l1":"1 53569U 22101AU  26182.91668981  .00673233  00000+0  26948-1 0  9994","l2":"2 53569  53.1611 260.3789 0001249  74.6380 177.5301 15.22371194  5741","cat":"starlink"},{"name":"STARLINK-4550","l1":"1 53570U 22101AV  26182.91668981  .00040646  00000+0  15145-2 0  9990","l2":"2 53570  53.1598 260.0337 0000925  44.4152  26.6807 15.27083156  5798","cat":"starlink"},{"name":"STARLINK-4584","l1":"1 53571U 22101AW  26182.91668981  .00040899  00000+0  17680-2 0  9997","l2":"2 53571  53.1592 260.2302 0000358  73.5590 256.1292 15.22096901  5791","cat":"starlink"},{"name":"STARLINK-4555","l1":"1 53572U 22101AX  26182.91668981  .00047122  00000+0  19700-2 0  9999","l2":"2 53572  53.1600 260.0592 0001506  43.5443  12.9580 15.23165930  5801","cat":"starlink"},{"name":"STARLINK-4559","l1":"1 53574U 22101AZ  26182.91668981  .01150842  00000+0  41904-1 0  9996","l2":"2 53574  53.1595 260.0733 0001214  50.4379 358.7943 15.25031169  5648","cat":"starlink"},{"name":"STARLINK-4551","l1":"1 53575U 22101BA  26182.91668981  .01053466  00000+0  37266-1 0  9997","l2":"2 53575  53.1607 259.9598 0001727  73.5739  34.1198 15.25786081  5797","cat":"starlink"},{"name":"STARLINK-4581","l1":"1 53576U 22101BB  26182.92499921  .00000792  00000+0  67842-4 0  9994","l2":"2 53576  53.1593 260.9109 0001036  88.0721 272.0389 15.08837375214518","cat":"starlink"},{"name":"STARLINK-4553","l1":"1 53577U 22101BC  26182.91668981  .01095390  00000+0  42185-1 0  9997","l2":"2 53577  53.1593 260.1057 0001047  67.1787 324.6092 15.23275473  5699","cat":"starlink"},{"name":"STARLINK-4556","l1":"1 53578U 22101BD  26182.91668981  .00020406  00000+0  90589-3 0  9996","l2":"2 53578  53.1601 259.9690 0001185  67.5197  36.0215 15.21556051  5751","cat":"starlink"},{"name":"STARLINK-4580","l1":"1 53579U 22101BE  26182.91668981  .00045732  00000+0  19497-2 0  9994","l2":"2 53579  53.1598 260.0660 0001080  53.5536 358.0856 15.22518086  5804","cat":"starlink"},{"name":"STARLINK-4691","l1":"1 53588U 22104A   26182.90293381  .00000713  00000+0  62879-4 0  9998","l2":"2 53588  53.1615  91.4655 0001357  93.5478 266.5668 15.08839652213332","cat":"starlink"},{"name":"STARLINK-4673","l1":"1 53589U 22104B   26182.91668981  .00024316  00000+0  92841-3 0  9998","l2":"2 53589  53.1589  90.1672 0000860  79.6618 271.7024 15.26534942  5806","cat":"starlink"},{"name":"STARLINK-4689","l1":"1 53590U 22104C   26182.91668981 -.00428071  00000+0 -28167-2 0  9997","l2":"2 53590  53.2194  70.9650 0001602  75.6478  76.8404 15.76147734  5864","cat":"starlink"},{"name":"STARLINK-4674","l1":"1 53591U 22104D   26182.91668981  .00016189  00000+0  87777-3 0  9992","l2":"2 53591  53.1602  91.1829 0002014  77.7424 110.0574 15.14731356  5694","cat":"starlink"},{"name":"STARLINK-4672","l1":"1 53592U 22104E   26182.91668981  .00032957  00000+0  12758-2 0  9990","l2":"2 53592  53.1591  90.1809 0001174  89.2511 255.9526 15.25916298  5801","cat":"starlink"},{"name":"STARLINK-4681","l1":"1 53594U 22104G   26182.84563845  .03723469  12122-4  64294-3 0  9991","l2":"2 53594  53.2030  49.8228 0009627 268.7376  91.2566 16.32046594213901","cat":"starlink"},{"name":"STARLINK-4684","l1":"1 53595U 22104H   26182.91668981  .01225271  00000+0  46659-1 0  9993","l2":"2 53595  53.1607  90.6939 0001500  72.7860   7.9901 15.23337291  5796","cat":"starlink"},{"name":"STARLINK-4676","l1":"1 53598U 22104L   26182.96153951  .00000546  00000+0  48397-4 0  9996","l2":"2 53598  53.1610  90.4204 0001174  92.4527 267.6600 15.12120561212870","cat":"starlink"},{"name":"STARLINK-4677","l1":"1 53600U 22104N   26182.91668981  .00010285  00000+0  58103-3 0  9995","l2":"2 53600  53.1605  91.4740 0000921 142.5063 250.9855 15.13666823  5745","cat":"starlink"},{"name":"STARLINK-4675","l1":"1 53601U 22104P   26182.91668981  .00030924  00000+0  13181-2 0  9994","l2":"2 53601  53.1592  90.2775 0001201  90.0463 202.5954 15.22709668  5646","cat":"starlink"},{"name":"STARLINK-4648","l1":"1 53602U 22104Q   26182.93831733  .00001074  00000+0  85569-4 0  9999","l2":"2 53602  53.1601  85.9947 0001334  91.6665 268.4479 15.08837966212930","cat":"starlink"},{"name":"STARLINK-4692","l1":"1 53603U 22104R   26182.96042822  .00000460  00000+0  46988-4 0  9996","l2":"2 53603  53.1608  86.1326 0001726  92.4164 267.7025 15.08836687212938","cat":"starlink"}]